{"fetched_at":"2026-07-19T17:31:08.183Z","source":"https://celestrak.org/NORAD/elements/gp.php?GROUP=kuiper&FORMAT=JSON","constellation":"kuiper","records":[{"OBJECT_NAME":"KUIPER-00140","OBJECT_ID":"2025-228U","EPOCH":"2026-07-19T03:48:03.865248","CLASSIFICATION_TYPE":"U","MEAN_MOTION":14.79930708,"ECCENTRICITY":0.00008281,"INCLINATION":51.8996,"RA_OF_ASC_NODE":124.3075,"ARG_OF_PERICENTER":92.5977,"MEAN_ANOMALY":267.508,"EPHEMERIS_TYPE":0,"NORAD_CAT_ID":65965,"ELEMENT_SET_NO":999,"REV_AT_EPOCH":4290,"BSTAR":0.00025466273,"MEAN_MOTION_DOT":0.00001721,"MEAN_MOTION_DDOT":0},{"OBJECT_NAME":"KUIPER-00141","OBJECT_ID":"2025-228V","EPOCH":"2026-07-19T03:55:49.684800","CLASSIFICATION_TYPE":"U","MEAN_MOTION":14.7994181,"ECCENTRICITY":0.00010133,"INCLINATION":51.9028,"RA_OF_ASC_NODE":119.3413,"ARG_OF_PERICENTER":88.7559,"MEAN_ANOMALY":271.3519,"EPHEMERIS_TYPE":0,"NORAD_CAT_ID":65966,"ELEMENT_SET_NO":999,"REV_AT_EPOCH":4297,"BSTAR":0.00025686746,"MEAN_MOTION_DOT":0.00001738,"MEAN_MOTION_DDOT":0},{"OBJECT_NAME":"KUIPER-00146","OBJECT_ID":"2025-228W","EPOCH":"2026-07-19T04:40:34.318560","CLASSIFICATION_TYPE":"U","MEAN_MOTION":14.79921052,"ECCENTRICITY":0.00008658,"INCLINATION":51.9032,"RA_OF_ASC_NODE":121.7145,"ARG_OF_PERICENTER":96.1241,"MEAN_ANOMALY":263.982,"EPHEMERIS_TYPE":0,"NORAD_CAT_ID":65967,"ELEMENT_SET_NO":999,"REV_AT_EPOCH":4294,"BSTAR":0.00023558142,"MEAN_MOTION_DOT":0.00001575,"MEAN_MOTION_DDOT":0},{"OBJECT_NAME":"KUIPER-00149","OBJECT_ID":"2025-228X","EPOCH":"2026-07-19T00:45:13.730688","CLASSIFICATION_TYPE":"U","MEAN_MOTION":14.79944114,"ECCENTRICITY":0.00010374,"INCLINATION":51.9011,"RA_OF_ASC_NODE":117.3216,"ARG_OF_PERICENTER":91.9921,"MEAN_ANOMALY":268.116,"EPHEMERIS_TYPE":0,"NORAD_CAT_ID":65968,"ELEMENT_SET_NO":999,"REV_AT_EPOCH":4299,"BSTAR":0.00022822863,"MEAN_MOTION_DOT":0.00001519,"MEAN_MOTION_DDOT":0},{"OBJECT_NAME":"KUIPER-00154","OBJECT_ID":"2025-228Y","EPOCH":"2026-07-19T03:14:58.051104","CLASSIFICATION_TYPE":"U","MEAN_MOTION":14.79935441,"ECCENTRICITY":0.00009015,"INCLINATION":51.9005,"RA_OF_ASC_NODE":114.3513,"ARG_OF_PERICENTER":93.7768,"MEAN_ANOMALY":266.3297,"EPHEMERIS_TYPE":0,"NORAD_CAT_ID":65969,"ELEMENT_SET_NO":999,"REV_AT_EPOCH":4304,"BSTAR":0.00026141484,"MEAN_MOTION_DOT":0.00001772,"MEAN_MOTION_DDOT":0},{"OBJECT_NAME":"KUIPER-00157","OBJECT_ID":"2025-228Z","EPOCH":"2026-07-19T04:31:08.954112","CLASSIFICATION_TYPE":"U","MEAN_MOTION":14.81201097,"ECCENTRICITY":0.00013148,"INCLINATION":51.9027,"RA_OF_ASC_NODE":116.635,"ARG_OF_PERICENTER":61.45,"MEAN_ANOMALY":298.6596,"EPHEMERIS_TYPE":0,"NORAD_CAT_ID":65970,"ELEMENT_SET_NO":999,"REV_AT_EPOCH":4301,"BSTAR":0.00018020841,"MEAN_MOTION_DOT":0.00001192,"MEAN_MOTION_DDOT":0},{"OBJECT_NAME":"KUIPER-00144","OBJECT_ID":"2025-301A","EPOCH":"2026-07-19T06:02:26.719296","CLASSIFICATION_TYPE":"U","MEAN_MOTION":14.79927017,"ECCENTRICITY":0.00004553,"INCLINATION":51.9008,"RA_OF_ASC_NODE":193.8521,"ARG_OF_PERICENTER":60.6294,"MEAN_ANOMALY":299.4714,"EPHEMERIS_TYPE":0,"NORAD_CAT_ID":67133,"ELEMENT_SET_NO":999,"REV_AT_EPOCH":3335,"BSTAR":0.00017106581,"MEAN_MOTION_DOT":0.00001083,"MEAN_MOTION_DDOT":0},{"OBJECT_NAME":"KUIPER-00164","OBJECT_ID":"2025-301B","EPOCH":"2026-07-19T06:00:02.000160","CLASSIFICATION_TYPE":"U","MEAN_MOTION":14.78170888,"ECCENTRICITY":0.00002672,"INCLINATION":51.9015,"RA_OF_ASC_NODE":206.3524,"ARG_OF_PERICENTER":114.3997,"MEAN_ANOMALY":316.3261,"EPHEMERIS_TYPE":0,"NORAD_CAT_ID":67134,"ELEMENT_SET_NO":999,"REV_AT_EPOCH":517,"BSTAR":0.008650608,"MEAN_MOTION_DOT":0.00063634,"MEAN_MOTION_DDOT":0},{"OBJECT_NAME":"KUIPER-00175","OBJECT_ID":"2025-301C","EPOCH":"2026-07-19T05:21:29.486880","CLASSIFICATION_TYPE":"U","MEAN_MOTION":14.79917923,"ECCENTRICITY":0.00006372,"INCLINATION":51.8992,"RA_OF_ASC_NODE":188.9363,"ARG_OF_PERICENTER":91.5129,"MEAN_ANOMALY":268.5907,"EPHEMERIS_TYPE":0,"NORAD_CAT_ID":67135,"ELEMENT_SET_NO":999,"REV_AT_EPOCH":3349,"BSTAR":0.00016172725,"MEAN_MOTION_DOT":0.00001012,"MEAN_MOTION_DDOT":0},{"OBJECT_NAME":"KUIPER-00179","OBJECT_ID":"2025-301D","EPOCH":"2026-07-19T07:24:08.329536","CLASSIFICATION_TYPE":"U","MEAN_MOTION":14.7994112,"ECCENTRICITY":0.00004032,"INCLINATION":51.8976,"RA_OF_ASC_NODE":203.5702,"ARG_OF_PERICENTER":61.466,"MEAN_ANOMALY":298.6343,"EPHEMERIS_TYPE":0,"NORAD_CAT_ID":67136,"ELEMENT_SET_NO":999,"REV_AT_EPOCH":3340,"BSTAR":0.00016842923,"MEAN_MOTION_DOT":0.00001063,"MEAN_MOTION_DDOT":0},{"OBJECT_NAME":"KUIPER-00181","OBJECT_ID":"2025-301E","EPOCH":"2026-07-19T05:27:28.656864","CLASSIFICATION_TYPE":"U","MEAN_MOTION":14.79929574,"ECCENTRICITY":0.00009427,"INCLINATION":51.9012,"RA_OF_ASC_NODE":216.4676,"ARG_OF_PERICENTER":69.103,"MEAN_ANOMALY":291.0033,"EPHEMERIS_TYPE":0,"NORAD_CAT_ID":67137,"ELEMENT_SET_NO":999,"REV_AT_EPOCH":3319,"BSTAR":0.00015712562,"MEAN_MOTION_DOT":0.00000977,"MEAN_MOTION_DDOT":0},{"OBJECT_NAME":"KUIPER-00183","OBJECT_ID":"2025-301F","EPOCH":"2026-07-19T04:53:57.351264","CLASSIFICATION_TYPE":"U","MEAN_MOTION":14.92770429,"ECCENTRICITY":0.0009503,"INCLINATION":51.893,"RA_OF_ASC_NODE":188.4741,"ARG_OF_PERICENTER":135.9871,"MEAN_ANOMALY":224.1855,"EPHEMERIS_TYPE":0,"NORAD_CAT_ID":67138,"ELEMENT_SET_NO":999,"REV_AT_EPOCH":3359,"BSTAR":0.00019211114,"MEAN_MOTION_DOT":0.00001757,"MEAN_MOTION_DDOT":0},{"OBJECT_NAME":"KUIPER-00184","OBJECT_ID":"2025-301G","EPOCH":"2026-07-19T05:06:00.075168","CLASSIFICATION_TYPE":"U","MEAN_MOTION":14.79940648,"ECCENTRICITY":0.00003822,"INCLINATION":51.8988,"RA_OF_ASC_NODE":198.9991,"ARG_OF_PERICENTER":54.3383,"MEAN_ANOMALY":305.7615,"EPHEMERIS_TYPE":0,"NORAD_CAT_ID":67139,"ELEMENT_SET_NO":999,"REV_AT_EPOCH":3355,"BSTAR":0.000156608,"MEAN_MOTION_DOT":0.00000973,"MEAN_MOTION_DDOT":0},{"OBJECT_NAME":"KUIPER-00186","OBJECT_ID":"2025-301H","EPOCH":"2026-07-19T07:53:22.064640","CLASSIFICATION_TYPE":"U","MEAN_MOTION":14.79930614,"ECCENTRICITY":0.00003884,"INCLINATION":51.9019,"RA_OF_ASC_NODE":216.0315,"ARG_OF_PERICENTER":54.7952,"MEAN_ANOMALY":305.3047,"EPHEMERIS_TYPE":0,"NORAD_CAT_ID":67140,"ELEMENT_SET_NO":999,"REV_AT_EPOCH":3305,"BSTAR":0.00014573179,"MEAN_MOTION_DOT":0.0000089,"MEAN_MOTION_DDOT":0},{"OBJECT_NAME":"KUIPER-00187","OBJECT_ID":"2025-301J","EPOCH":"2026-07-19T01:20:31.307424","CLASSIFICATION_TYPE":"U","MEAN_MOTION":14.79940574,"ECCENTRICITY":0.00003953,"INCLINATION":51.9031,"RA_OF_ASC_NODE":219.7619,"ARG_OF_PERICENTER":56.7933,"MEAN_ANOMALY":303.3067,"EPHEMERIS_TYPE":0,"NORAD_CAT_ID":67141,"ELEMENT_SET_NO":999,"REV_AT_EPOCH":3297,"BSTAR":0.00015334933,"MEAN_MOTION_DOT":0.00000948,"MEAN_MOTION_DDOT":0},{"OBJECT_NAME":"KUIPER-00188","OBJECT_ID":"2025-301K","EPOCH":"2026-07-19T06:14:07.563264","CLASSIFICATION_TYPE":"U","MEAN_MOTION":14.79930119,"ECCENTRICITY":0.00005477,"INCLINATION":51.9,"RA_OF_ASC_NODE":186.4444,"ARG_OF_PERICENTER":51.1066,"MEAN_ANOMALY":308.9945,"EPHEMERIS_TYPE":0,"NORAD_CAT_ID":67142,"ELEMENT_SET_NO":999,"REV_AT_EPOCH":3345,"BSTAR":0.0001759865,"MEAN_MOTION_DOT":0.00001121,"MEAN_MOTION_DDOT":0}]}
