[
  {
    "name": "KUIPER-00140",
    "noradId": "65965",
    "line1": "1 65965U 25228U   26200.15837807  .00001721  00000+0  25466-3 0  9995",
    "line2": "2 65965  51.8996 124.3075 0000828  92.5977 267.5080 14.79930708 42901"
  },
  {
    "name": "KUIPER-00141",
    "noradId": "65966",
    "line1": "1 65966U 25228V   26200.16376950  .00001738  00000+0  25687-3 0  9997",
    "line2": "2 65966  51.9028 119.3413 0001013  88.7559 271.3519 14.79941810 42972"
  },
  {
    "name": "KUIPER-00146",
    "noradId": "65967",
    "line1": "1 65967U 25228W   26200.19484165  .00001575  00000+0  23558-3 0  9993",
    "line2": "2 65967  51.9032 121.7145 0000865  96.1241 263.9820 14.79921052 42947"
  },
  {
    "name": "KUIPER-00149",
    "noradId": "65968",
    "line1": "1 65968U 25228X   26200.03140892  .00001519  00000+0  22823-3 0  9995",
    "line2": "2 65968  51.9011 117.3216 0001037  91.9921 268.1160 14.79944114 42998"
  },
  {
    "name": "KUIPER-00154",
    "noradId": "65969",
    "line1": "1 65969U 25228Y   26200.13539411  .00001772  00000+0  26141-3 0  9994",
    "line2": "2 65969  51.9005 114.3513 0000901  93.7768 266.3297 14.79935441 43048"
  },
  {
    "name": "KUIPER-00157",
    "noradId": "65970",
    "line1": "1 65970U 25228Z   26200.18829808  .00001192  00000+0  18021-3 0  9997",
    "line2": "2 65970  51.9027 116.6350 0001314  61.4500 298.6596 14.81201097 43016"
  },
  {
    "name": "KUIPER-00144",
    "noradId": "67133",
    "line1": "1 67133U 25301A   26200.25169814  .00001083  00000+0  17107-3 0  9997",
    "line2": "2 67133  51.9008 193.8521 0000455  60.6294 299.4714 14.79927017 33352"
  },
  {
    "name": "KUIPER-00164",
    "noradId": "67134",
    "line1": "1 67134U 25301B   26200.25002315  .00063634  00000+0  86506-2 0  9998",
    "line2": "2 67134  51.9015 206.3524 0000267 114.3997 316.3261 14.78170888  5172"
  },
  {
    "name": "KUIPER-00175",
    "noradId": "67135",
    "line1": "1 67135U 25301C   26200.22325795  .00001012  00000+0  16173-3 0  9992",
    "line2": "2 67135  51.8992 188.9363 0000637  91.5129 268.5907 14.79917923 33497"
  },
  {
    "name": "KUIPER-00179",
    "noradId": "67136",
    "line1": "1 67136U 25301D   26200.30842974  .00001063  00000+0  16843-3 0  9995",
    "line2": "2 67136  51.8976 203.5702 0000403  61.4660 298.6343 14.79941120 33403"
  },
  {
    "name": "KUIPER-00181",
    "noradId": "67137",
    "line1": "1 67137U 25301E   26200.22741501  .00000977  00000+0  15713-3 0  9999",
    "line2": "2 67137  51.9012 216.4676 0000942  69.1030 291.0033 14.79929574 33191"
  },
  {
    "name": "KUIPER-00183",
    "noradId": "67138",
    "line1": "1 67138U 25301F   26200.20413601  .00001757  00000+0  19211-3 0  9999",
    "line2": "2 67138  51.8930 188.4741 0009503 135.9871 224.1855 14.92770429 33599"
  },
  {
    "name": "KUIPER-00184",
    "noradId": "67139",
    "line1": "1 67139U 25301G   26200.21250087  .00000973  00000+0  15661-3 0  9992",
    "line2": "2 67139  51.8988 198.9991 0000382  54.3383 305.7615 14.79940648 33557"
  },
  {
    "name": "KUIPER-00186",
    "noradId": "67140",
    "line1": "1 67140U 25301H   26200.32872760  .00000890  00000+0  14573-3 0  9993",
    "line2": "2 67140  51.9019 216.0315 0000388  54.7952 305.3047 14.79930614 33051"
  },
  {
    "name": "KUIPER-00187",
    "noradId": "67141",
    "line1": "1 67141U 25301J   26200.05591791  .00000948  00000+0  15335-3 0  9997",
    "line2": "2 67141  51.9031 219.7619 0000395  56.7933 303.3067 14.79940574 32978"
  },
  {
    "name": "KUIPER-00188",
    "noradId": "67142",
    "line1": "1 67142U 25301K   26200.25980976  .00001121  00000+0  17599-3 0  9995",
    "line2": "2 67142  51.9000 186.4444 0000547  51.1066 308.9945 14.79930119 33450"
  }
]